{
  "norad_id": 63247,
  "name": "EZIE-A",
  "history": [
    {
      "epoch": "2026-03-28T16:49:33.728448Z",
      "apogee_km": 580.7580875068043,
      "perigee_km": 574.4164145926379,
      "latitude_deg": 5.114576872425862e-05,
      "longitude_deg": -97.35419865616421,
      "height_km": 581.3735960131825,
      "semi_major_axis_km": 6955.724251049721,
      "eccentricity": 0.00045586,
      "inclination_deg": 97.6989,
      "raan_deg": 341.1541,
      "arg_perigee_deg": 103.5733,
      "mean_anomaly_deg": 256.5997,
      "mean_motion_rev_day": 14.96543093
    },
    {
      "epoch": "2026-03-29T04:03:31.879008Z",
      "apogee_km": 580.7624328054371,
      "perigee_km": 574.3506744876868,
      "latitude_deg": -1.9683250944545977e-05,
      "longitude_deg": 94.1527013272563,
      "height_km": 581.2959656583105,
      "semi_major_axis_km": 6955.693553646562,
      "eccentricity": 0.0004609,
      "inclination_deg": 97.6989,
      "raan_deg": 341.6146,
      "arg_perigee_deg": 102.5636,
      "mean_anomaly_deg": 257.6101,
      "mean_motion_rev_day": 14.96553
    },
    {
      "epoch": "2026-03-29T16:53:46.653216Z",
      "apogee_km": 580.7661506694249,
      "perigee_km": 574.2945977444624,
      "latitude_deg": -4.5311166007769645e-05,
      "longitude_deg": -98.4099689706596,
      "height_km": 581.2053814694933,
      "semi_major_axis_km": 6955.667374206943,
      "eccentricity": 0.0004652,
      "inclination_deg": 97.6989,
      "raan_deg": 342.1407,
      "arg_perigee_deg": 101.2827,
      "mean_anomaly_deg": 258.8917,
      "mean_motion_rev_day": 14.96561449
    },
    {
      "epoch": "2026-03-30T05:44:01.128480Z",
      "apogee_km": 580.7874305079831,
      "perigee_km": 574.2185241134111,
      "latitude_deg": 6.126204239174248e-05,
      "longitude_deg": 69.02879212216948,
      "height_km": 581.1205064957825,
      "semi_major_axis_km": 6955.639977310697,
      "eccentricity": 0.0004722,
      "inclination_deg": 97.699,
      "raan_deg": 342.667,
      "arg_perigee_deg": 100.0969,
      "mean_anomaly_deg": 260.0786,
      "mean_motion_rev_day": 14.96570291
    },
    {
      "epoch": "2026-03-30T10:32:51.469440Z",
      "apogee_km": 580.7986163366841,
      "perigee_km": 574.1835358112148,
      "latitude_deg": 7.438972278816129e-06,
      "longitude_deg": -3.181357690869658,
      "height_km": 581.0846551569218,
      "semi_major_axis_km": 6955.628076073949,
      "eccentricity": 0.00047552,
      "inclination_deg": 97.6989,
      "raan_deg": 342.8643,
      "arg_perigee_deg": 99.6059,
      "mean_anomaly_deg": 260.57,
      "mean_motion_rev_day": 14.96574132
    },
    {
      "epoch": "2026-03-30T23:23:05.523936Z",
      "apogee_km": 580.815641907413,
      "perigee_km": 574.105854983397,
      "latitude_deg": -4.314210821363461e-05,
      "longitude_deg": 164.25928272293208,
      "height_km": 580.9920788741198,
      "semi_major_axis_km": 6955.597748445404,
      "eccentricity": 0.00048233,
      "inclination_deg": 97.6989,
      "raan_deg": 343.3907,
      "arg_perigee_deg": 98.3958,
      "mean_anomaly_deg": 261.781,
      "mean_motion_rev_day": 14.9658392
    },
    {
      "epoch": "2026-03-31T10:37:02.586720Z",
      "apogee_km": 580.843402295448,
      "perigee_km": 574.0309738241785,
      "latitude_deg": -4.9364798449597994e-05,
      "longitude_deg": -4.229180489489026,
      "height_km": 580.8994305128116,
      "semi_major_axis_km": 6955.5741880598125,
      "eccentricity": 0.00048971,
      "inclination_deg": 97.6987,
      "raan_deg": 343.8513,
      "arg_perigee_deg": 97.0989,
      "mean_anomaly_deg": 263.0789,
      "mean_motion_rev_day": 14.96591524
    },
    {
      "epoch": "2026-04-01T12:17:29.385024Z",
      "apogee_km": 580.8748660406163,
      "perigee_km": 573.8998662062668,
      "latitude_deg": -2.70754891648437e-05,
      "longitude_deg": -29.34263992953251,
      "height_km": 580.7108399848287,
      "semi_major_axis_km": 6955.524366123441,
      "eccentricity": 0.0005014,
      "inclination_deg": 97.6985,
      "raan_deg": 344.9039,
      "arg_perigee_deg": 94.646,
      "mean_anomaly_deg": 265.5334,
      "mean_motion_rev_day": 14.96607604
    },
    {
      "epoch": "2026-04-02T15:34:11.613792Z",
      "apogee_km": 580.8813656406865,
      "perigee_km": 573.7276940272523,
      "latitude_deg": 4.565147863710962e-05,
      "longitude_deg": -78.52038580474529,
      "height_km": 580.4602504565316,
      "semi_major_axis_km": 6955.441529833969,
      "eccentricity": 0.00051425,
      "inclination_deg": 97.6984,
      "raan_deg": 346.0224,
      "arg_perigee_deg": 91.8433,
      "mean_anomaly_deg": 268.3378,
      "mean_motion_rev_day": 14.9663434
    },
    {
      "epoch": "2026-04-02T15:34:11.640576Z",
      "apogee_km": 580.8675001088905,
      "perigee_km": 573.7744631683745,
      "latitude_deg": -5.442692555256419e-05,
      "longitude_deg": -78.52048425583591,
      "height_km": 580.47575398116,
      "semi_major_axis_km": 6955.457981638632,
      "eccentricity": 0.00050989,
      "inclination_deg": 97.6984,
      "raan_deg": 346.0224,
      "arg_perigee_deg": 91.842,
      "mean_anomaly_deg": 268.3385,
      "mean_motion_rev_day": 14.9662903
    },
    {
      "epoch": "2026-04-03T15:38:19.212864Z",
      "apogee_km": 580.8080740840469,
      "perigee_km": 573.6649055100252,
      "latitude_deg": 9.067893451612268e-06,
      "longitude_deg": -79.55361305919125,
      "height_km": 580.2346693297252,
      "semi_major_axis_km": 6955.373489797035,
      "eccentricity": 0.0005135,
      "inclination_deg": 97.6983,
      "raan_deg": 347.0093,
      "arg_perigee_deg": 89.3181,
      "mean_anomaly_deg": 270.8629,
      "mean_motion_rev_day": 14.96656301
    },
    {
      "epoch": "2026-04-04T15:42:25.275744Z",
      "apogee_km": 580.7574005119786,
      "perigee_km": 573.5697928753552,
      "latitude_deg": 3.3264076062310535e-05,
      "longitude_deg": -80.58053100446007,
      "height_km": 580.0045092532612,
      "semi_major_axis_km": 6955.300596693667,
      "eccentricity": 0.0005167,
      "inclination_deg": 97.6982,
      "raan_deg": 347.9961,
      "arg_perigee_deg": 86.8143,
      "mean_anomaly_deg": 273.367,
      "mean_motion_rev_day": 14.96679829
    },
    {
      "epoch": "2026-04-05T14:10:13.958112Z",
      "apogee_km": 580.7052631926454,
      "perigee_km": 573.5250781667655,
      "latitude_deg": -1.4134751371085346e-05,
      "longitude_deg": -57.534913321819204,
      "height_km": 579.8072974117507,
      "semi_major_axis_km": 6955.252170679705,
      "eccentricity": 0.00051617,
      "inclination_deg": 97.6982,
      "raan_deg": 348.9171,
      "arg_perigee_deg": 84.4286,
      "mean_anomaly_deg": 275.7524,
      "mean_motion_rev_day": 14.9669546
    },
    {
      "epoch": "2026-04-05T15:46:30.256896Z",
      "apogee_km": 580.6933408851419,
      "perigee_km": 573.529435045537,
      "latitude_deg": 3.2319073695838196e-05,
      "longitude_deg": -81.6030268870752,
      "height_km": 579.7963295944013,
      "semi_major_axis_km": 6955.248387965339,
      "eccentricity": 0.000515,
      "inclination_deg": 97.6982,
      "raan_deg": 348.9828,
      "arg_perigee_deg": 84.3001,
      "mean_anomaly_deg": 275.8808,
      "mean_motion_rev_day": 14.96696681
    },
    {
      "epoch": "2026-04-06T06:12:56.822400Z",
      "apogee_km": 580.6544510879066,
      "perigee_km": 573.5142208643929,
      "latitude_deg": -1.9283587918980173e-06,
      "longitude_deg": 61.78532786585756,
      "height_km": 579.6793168160334,
      "semi_major_axis_km": 6955.22133597615,
      "eccentricity": 0.0005133,
      "inclination_deg": 97.6981,
      "raan_deg": 349.5749,
      "arg_perigee_deg": 82.827,
      "mean_anomaly_deg": 277.3535,
      "mean_motion_rev_day": 14.96705413
    },
    {
      "epoch": "2026-04-07T11:05:49.036704Z",
      "apogee_km": 580.5610599516222,
      "perigee_km": 573.5150503102705,
      "latitude_deg": 3.569567094588558e-05,
      "longitude_deg": -11.43424751817513,
      "height_km": 579.4550756682556,
      "semi_major_axis_km": 6955.175055130946,
      "eccentricity": 0.00050653,
      "inclination_deg": 97.6981,
      "raan_deg": 350.759,
      "arg_perigee_deg": 79.7986,
      "mean_anomaly_deg": 280.3807,
      "mean_motion_rev_day": 14.96720352
    },
    {
      "epoch": "2026-04-07T15:54:37.638432Z",
      "apogee_km": 580.5327589203953,
      "perigee_km": 573.5275145802589,
      "latitude_deg": 3.937597358599802e-05,
      "longitude_deg": -83.63723924134186,
      "height_km": 579.4267790371086,
      "semi_major_axis_km": 6955.167136750327,
      "eccentricity": 0.0005036,
      "inclination_deg": 97.6981,
      "raan_deg": 350.9562,
      "arg_perigee_deg": 79.3984,
      "mean_anomaly_deg": 280.7805,
      "mean_motion_rev_day": 14.96722908
    },
    {
      "epoch": "2026-04-08T14:22:24.121056Z",
      "apogee_km": 580.4681555395919,
      "perigee_km": 573.5338829344137,
      "latitude_deg": 5.871442246418847e-05,
      "longitude_deg": -60.5824412876222,
      "height_km": 579.2748344339817,
      "semi_major_axis_km": 6955.1380192370025,
      "eccentricity": 0.0004985,
      "inclination_deg": 97.698,
      "raan_deg": 351.8772,
      "arg_perigee_deg": 77.2123,
      "mean_anomaly_deg": 282.9656,
      "mean_motion_rev_day": 14.96732307
    },
    {
      "epoch": "2026-04-09T06:25:05.619360Z",
      "apogee_km": 580.4029743883957,
      "perigee_km": 573.5591382209914,
      "latitude_deg": -2.3416481195346563e-05,
      "longitude_deg": 58.74351912469006,
      "height_km": 579.1446662931957,
      "semi_major_axis_km": 6955.118056304694,
      "eccentricity": 0.000492,
      "inclination_deg": 97.6977,
      "raan_deg": 352.535,
      "arg_perigee_deg": 75.1352,
      "mean_anomaly_deg": 285.0414,
      "mean_motion_rev_day": 14.96738751
    },
    {
      "epoch": "2026-04-10T04:52:51.355488Z",
      "apogee_km": 580.366116699789,
      "perigee_km": 573.5412253261375,
      "latitude_deg": 5.737088496937116e-05,
      "longitude_deg": 81.80152795588045,
      "height_km": 578.9873183501513,
      "semi_major_axis_km": 6955.090671012963,
      "eccentricity": 0.00049064,
      "inclination_deg": 97.6975,
      "raan_deg": 353.4561,
      "arg_perigee_deg": 72.8202,
      "mean_anomaly_deg": 287.3557,
      "mean_motion_rev_day": 14.96747591
    },
    {
      "epoch": "2026-04-10T22:31:48.412128Z",
      "apogee_km": 580.3194188411107,
      "perigee_km": 573.5507426921095,
      "latitude_deg": -4.162150838591732e-06,
      "longitude_deg": 177.06257230740633,
      "height_km": 578.867414703811,
      "semi_major_axis_km": 6955.07208076661,
      "eccentricity": 0.0004866,
      "inclination_deg": 97.6975,
      "raan_deg": 354.1797,
      "arg_perigee_deg": 70.8637,
      "mean_anomaly_deg": 289.3111,
      "mean_motion_rev_day": 14.96753592
    },
    {
      "epoch": "2026-04-13T03:28:38.340480Z",
      "apogee_km": 580.0775041379857,
      "perigee_km": 573.7250503770692,
      "latitude_deg": -1.2253143561827537e-05,
      "longitude_deg": 102.85097213482639,
      "height_km": 578.5842080447112,
      "semi_major_axis_km": 6955.038277257527,
      "eccentricity": 0.00045668,
      "inclination_deg": 97.6971,
      "raan_deg": 356.3506,
      "arg_perigee_deg": 64.6518,
      "mean_anomaly_deg": 295.5176,
      "mean_motion_rev_day": 14.96764504
    },
    {
      "epoch": "2026-04-14T14:46:30.908064Z",
      "apogee_km": 579.9590841982117,
      "perigee_km": 573.8038928358746,
      "latitude_deg": -8.39593991069949e-06,
      "longitude_deg": -66.6203932489315,
      "height_km": 578.4374216593045,
      "semi_major_axis_km": 6955.018488517043,
      "eccentricity": 0.0004425,
      "inclination_deg": 97.6969,
      "raan_deg": 357.7979,
      "arg_perigee_deg": 61.101,
      "mean_anomaly_deg": 299.0655,
      "mean_motion_rev_day": 14.96770892
    }
  ]
}